[{"OBJECT_NAME":"STARLINK-34969","OBJECT_ID":"2025-179G","EPOCH":"2026-03-09T15:46:24.233088","MEAN_MOTION":15.05662612,"ECCENTRICITY":0.00019639,"INCLINATION":97.6036,"RA_OF_ASC_NODE":112.935,"ARG_OF_PERICENTER":125.6061,"MEAN_ANOMALY":234.5349,"EPHEMERIS_TYPE":0,"CLASSIFICATION_TYPE":"U","NORAD_CAT_ID":65241,"ELEMENT_SET_NO":999,"REV_AT_EPOCH":3181,"BSTAR":-1.2887071e-5,"MEAN_MOTION_DOT":-2.47e-6,"MEAN_MOTION_DDOT":0},{"OBJECT_NAME":"CZ-2D DEB","OBJECT_ID":"2018-048F","EPOCH":"2026-03-09T12:09:53.706240","MEAN_MOTION":15.03119858,"ECCENTRICITY":0.00118256,"INCLINATION":98.3009,"RA_OF_ASC_NODE":268.7455,"ARG_OF_PERICENTER":183.5969,"MEAN_ANOMALY":176.5171,"EPHEMERIS_TYPE":0,"CLASSIFICATION_TYPE":"U","NORAD_CAT_ID":44619,"ELEMENT_SET_NO":999,"REV_AT_EPOCH":41667,"BSTAR":0.00065531565,"MEAN_MOTION_DOT":8.795e-5,"MEAN_MOTION_DDOT":0}]
